{
  "norad_id": 49950,
  "name": "GLOBAL-16",
  "history": [
    {
      "epoch": "2026-03-28T22:09:31.956192",
      "apogee_km": 433.1146323580642,
      "perigee_km": 421.36718900864344,
      "latitude_deg": 39.121965161648944,
      "longitude_deg": -16.36449311999604,
      "semi_major_axis_km": 6805.377910683354,
      "eccentricity": 0.0008631,
      "inclination_deg": 41.9955,
      "raan_deg": 168.4819,
      "arg_perigee_deg": 33.0762,
      "mean_anomaly_deg": 327.0619,
      "mean_motion_rev_day": 15.46409081
    }
  ]
}